NORAD_CAT_ID,OBJECT_NAME,OBJECT_TYPE,EPOCH,MEAN_MOTION,ECCENTRICITY,INCLINATION,RA_OF_ASC_NODE,ARG_OF_PERICENTER,MEAN_ANOMALY,BSTAR,MEAN_MOTION_DOT,MEAN_MOTION_DDOT,TLE_LINE0,TLE_LINE1,TLE_LINE2,SEMIMAJOR_AXIS,PERIOD,APOGEE,PERIGEE,DECAYED
54015.0,STARLINK-5055,PAYLOAD,2024-08-18 05:08:37,15.08842909,0.0001662,53.2138,236.019,74.7974,285.3202,0.00013861,1.919e-05,0.0,0 STARLINK-5055,1 54015U 22125BD  24231.21432217  .00001919  00000-0  13861-3 0  9993,2 54015  53.2138 236.0190 0001662  74.7974 285.3202 15.08842909103780,6917.871,95.437,540.886,538.587,0.0
54015.0,STARLINK-5055,PAYLOAD,2024-08-18 06:44:00,15.08844152,0.0001657,53.2138,235.7217,74.9227,285.1948,0.00011581,1.556e-05,0.0,0 STARLINK-5055,1 54015U 22125BD  24231.28056138  .00001556  00000-0  11581-3 0  9998,2 54015  53.2138 235.7217 0001657  74.9227 285.1948 15.08844152103791,6917.868,95.437,540.879,538.586,0.0
54015.0,STARLINK-5055,PAYLOAD,2024-08-19 04:59:24,15.08836124,0.0001545,53.2137,231.5579,85.9679,274.149,3.5948e-05,2.84e-06,0.0,0 STARLINK-5055,1 54015U 22125BD  24232.20792476  .00000284  00000-0  35948-4 0  9994,2 54015  53.2137 231.5579 0001545  85.9679 274.1490 15.08836124103985,6917.892,95.438,540.826,538.688,0.0
54015.0,STARLINK-5055,PAYLOAD,2024-08-19 06:34:47,15.08835933,0.0001527,53.2148,231.2604,88.2387,271.878,4.2129e-05,3.82e-06,0.0,0 STARLINK-5055,1 54015U 22125BD  24232.27416576  .00000382  00000-0  42129-4 0  9993,2 54015  53.2148 231.2604 0001527  88.2387 271.8780 15.08835933103944,6917.893,95.438,540.814,538.701,0.0
54015.0,STARLINK-5055,PAYLOAD,2024-08-20 06:25:34,15.08839466,0.0001559,53.2149,226.8002,89.0892,271.0279,4.4963e-05,4.28e-06,0.0,0 STARLINK-5055,1 54015U 22125BD  24233.26776426  .00000428  00000-0  44963-4 0  9995,2 54015  53.2149 226.8002 0001559  89.0892 271.0279 15.08839466104145,6917.882,95.438,540.826,538.669,0.0
54015.0,STARLINK-5055,PAYLOAD,2024-08-21 04:40:59,15.08832965,0.0001515,53.2146,222.6366,89.2324,270.8841,7.3871e-05,8.88e-06,0.0,0 STARLINK-5055,1 54015U 22125BD  24234.19512982  .00000888  00000-0  73871-4 0  9993,2 54015  53.2146 222.6366 0001515  89.2324 270.8841 15.08832965104287,6917.902,95.438,540.815,538.719,0.0
54015.0,STARLINK-5055,PAYLOAD,2024-08-21 06:16:22,15.08833154,0.0001524,53.2146,222.3394,89.2598,270.8569,7.378e-05,8.86e-06,0.0,0 STARLINK-5055,1 54015U 22125BD  24234.26136999  .00000886  00000-0  73780-4 0  9998,2 54015  53.2146 222.3394 0001524  89.2598 270.8569 15.08833154104242,6917.901,95.438,540.821,538.712,0.0
54015.0,STARLINK-5055,PAYLOAD,2024-08-21 22:10:13,15.08837157,0.0001538,53.2149,219.365,101.5964,258.5201,6.18e-05,6.96e-06,0.0,0 STARLINK-5055,1 54015U 22125BD  24234.92376936  .00000696  00000-0  61800-4 0  9997,2 54015  53.2149 219.3650 0001538 101.5964 258.5201 15.08837157104340,6917.889,95.438,540.818,538.69,0.0
